{
  "links" : {
    "next" : "https://api.nasa.gov/neo/rest/v1/feed?start_date=2016-05-09&end_date=2016-05-09&detailed=true&api_key=t0TVs3DtDT2H8Oy2Zy8m2eVrNsAVKAexjcZXUckd",
    "prev" : "https://api.nasa.gov/neo/rest/v1/feed?start_date=2016-05-07&end_date=2016-05-07&detailed=true&api_key=t0TVs3DtDT2H8Oy2Zy8m2eVrNsAVKAexjcZXUckd",
    "self" : "https://api.nasa.gov/neo/rest/v1/feed?start_date=2016-05-08&end_date=2016-05-08&detailed=true&api_key=t0TVs3DtDT2H8Oy2Zy8m2eVrNsAVKAexjcZXUckd"
  },
  "element_count" : 9,
  "near_earth_objects" : {
    "2016-05-08" : [ {
      "links" : {
        "self" : "https://api.nasa.gov/neo/rest/v1/neo/3738928?api_key=t0TVs3DtDT2H8Oy2Zy8m2eVrNsAVKAexjcZXUckd"
      },
      "neo_reference_id" : "3738928",
      "name" : "(2015 YP1)",
      "nasa_jpl_url" : "http://ssd.jpl.nasa.gov/sbdb.cgi?sstr=3738928",
      "absolute_magnitude_h" : 23.0,
      "estimated_diameter" : {
        "kilometers" : {
          "estimated_diameter_min" : 0.0667659413,
          "estimated_diameter_max" : 0.1492931834
        },
        "meters" : {
          "estimated_diameter_min" : 66.7659413495,
          "estimated_diameter_max" : 149.2931834393
        },
        "miles" : {
          "estimated_diameter_min" : 0.0414864197,
          "estimated_diameter_max" : 0.0927664547
        },
        "feet" : {
          "estimated_diameter_min" : 219.0483710172,
          "estimated_diameter_max" : 489.807047955
        }
      },
      "is_potentially_hazardous_asteroid" : false,
      "close_approach_data" : [ {
        "close_approach_date" : "2016-05-08",
        "epoch_date_close_approach" : 1462690800000,
        "relative_velocity" : {
          "kilometers_per_second" : "7.1240703178",
          "kilometers_per_hour" : "25646.6531442557",
          "miles_per_hour" : "15935.832893996"
        },
        "miss_distance" : {
          "astronomical" : "0.2747102822",
          "lunar" : "106.8622970581",
          "kilometers" : "41096072",
          "miles" : "25535914"
        },
        "orbiting_body" : "Earth"
      } ],
      "orbital_data" : {
        "orbit_id" : "12",
        "orbit_determination_date" : "2017-04-06 08:29:39",
        "orbit_uncertainty" : "6",
        "minimum_orbit_intersection" : ".0751376",
        "jupiter_tisserand_invariant" : "5.124",
        "epoch_osculation" : "2458000.5",
        "eccentricity" : ".1812120741546864",
        "semi_major_axis" : "1.240169183198112",
        "inclination" : "14.85184168695528",
        "ascending_node_longitude" : "273.1985270965037",
        "orbital_period" : "504.4519788330545",
        "perihelion_distance" : "1.015435553208059",
        "perihelion_argument" : "225.4006564744187",
        "aphelion_distance" : "1.464902813188165",
        "perihelion_time" : "2457926.301526623681",
        "mean_anomaly" : "52.95142359688302",
        "mean_motion" : ".7136457286435582",
        "equinox" : "J2000"
      }
    }, {
      "links" : {
        "self" : "https://api.nasa.gov/neo/rest/v1/neo/3753027?api_key=t0TVs3DtDT2H8Oy2Zy8m2eVrNsAVKAexjcZXUckd"
      },
      "neo_reference_id" : "3753027",
      "name" : "(2016 JP17)",
      "nasa_jpl_url" : "http://ssd.jpl.nasa.gov/sbdb.cgi?sstr=3753027",
      "absolute_magnitude_h" : 23.1,
      "estimated_diameter" : {
        "kilometers" : {
          "estimated_diameter_min" : 0.063760979,
          "estimated_diameter_max" : 0.1425738833
        },
        "meters" : {
          "estimated_diameter_min" : 63.7609789875,
          "estimated_diameter_max" : 142.5738833281
        },
        "miles" : {
          "estimated_diameter_min" : 0.0396192233,
          "estimated_diameter_max" : 0.0885912765
        },
        "feet" : {
          "estimated_diameter_min" : 209.1895703015,
          "estimated_diameter_max" : 467.7620993781
        }
      },
      "is_potentially_hazardous_asteroid" : false,
      "close_approach_data" : [ {
        "close_approach_date" : "2016-05-08",
        "epoch_date_close_approach" : 1462690800000,
        "relative_velocity" : {
          "kilometers_per_second" : "11.5942731102",
          "kilometers_per_hour" : "41739.3831967495",
          "miles_per_hour" : "25935.2295202247"
        },
        "miss_distance" : {
          "astronomical" : "0.0310078665",
          "lunar" : "12.0620603561",
          "kilometers" : "4638711",
          "miles" : "2882361.25"
        },
        "orbiting_body" : "Earth"
      } ],
      "orbital_data" : {
        "orbit_id" : "20",
        "orbit_determination_date" : "2017-04-06 08:26:02",
        "orbit_uncertainty" : "7",
        "minimum_orbit_intersection" : ".0293952",
        "jupiter_tisserand_invariant" : "4.152",
        "epoch_osculation" : "2458000.5",
        "eccentricity" : ".4692949633868614",
        "semi_major_axis" : "1.642711943920234",
        "inclination" : "7.386240813745339",
        "ascending_node_longitude" : "58.54019232766682",
        "orbital_period" : "769.0251607109042",
        "perihelion_distance" : ".8717955023430278",
        "perihelion_argument" : "111.1237090658823",
        "aphelion_distance" : "2.413628385497441",
        "perihelion_time" : "2458242.006716333892",
        "mean_anomaly" : "246.9446380664197",
        "mean_motion" : ".4681251256684605",
        "equinox" : "J2000"
      }
    }, {
      "links" : {
        "self" : "https://api.nasa.gov/neo/rest/v1/neo/3752784?api_key=t0TVs3DtDT2H8Oy2Zy8m2eVrNsAVKAexjcZXUckd"
      },
      "neo_reference_id" : "3752784",
      "name" : "(2016 JC6)",
      "nasa_jpl_url" : "http://ssd.jpl.nasa.gov/sbdb.cgi?sstr=3752784",
      "absolute_magnitude_h" : 21.3,
      "estimated_diameter" : {
        "kilometers" : {
          "estimated_diameter_min" : 0.1460679643,
          "estimated_diameter_max" : 0.3266178974
        },
        "meters" : {
          "estimated_diameter_min" : 146.0679642714,
          "estimated_diameter_max" : 326.6178974458
        },
        "miles" : {
          "estimated_diameter_min" : 0.090762397,
          "estimated_diameter_max" : 0.2029508896
        },
        "feet" : {
          "estimated_diameter_min" : 479.2256199,
          "estimated_diameter_max" : 1071.581062656
        }
      },
      "is_potentially_hazardous_asteroid" : true,
      "close_approach_data" : [ {
        "close_approach_date" : "2016-05-08",
        "epoch_date_close_approach" : 1462690800000,
        "relative_velocity" : {
          "kilometers_per_second" : "5.6897397192",
          "kilometers_per_hour" : "20483.0629891316",
          "miles_per_hour" : "12727.3787778857"
        },
        "miss_distance" : {
          "astronomical" : "0.0328978835",
          "lunar" : "12.7972764969",
          "kilometers" : "4921453",
          "miles" : "3058049.25"
        },
        "orbiting_body" : "Earth"
      } ],
      "orbital_data" : {
        "orbit_id" : "35",
        "orbit_determination_date" : "2017-04-06 08:26:08",
        "orbit_uncertainty" : "2",
        "minimum_orbit_intersection" : ".0190611",
        "jupiter_tisserand_invariant" : "7.196",
        "epoch_osculation" : "2458000.5",
        "eccentricity" : ".2822260555873711",
        "semi_major_axis" : ".8072442478799036",
        "inclination" : "6.793999005109728",
        "ascending_node_longitude" : "236.9246028895312",
        "orbital_period" : "264.9145827084916",
        "perihelion_distance" : ".5794188879051644",
        "perihelion_argument" : "173.99528360",
        "aphelion_distance" : "1.035069607854643",
        "perihelion_time" : "2457918.617610065744",
        "mean_anomaly" : "111.2723205908555",
        "mean_motion" : "1.358928588676974",
        "equinox" : "J2000"
      }
    } ]
  }
}